[{"OBJECT_NAME":"TECHNOSAT","OBJECT_ID":"2017-042E","EPOCH":"2026-04-05T05:35:55.430016","MEAN_MOTION":15.04521665,"ECCENTRICITY":0.00171816,"INCLINATION":97.4206,"RA_OF_ASC_NODE":255.7255,"ARG_OF_PERICENTER":349.338,"MEAN_ANOMALY":10.748,"EPHEMERIS_TYPE":0,"CLASSIFICATION_TYPE":"U","NORAD_CAT_ID":42829,"ELEMENT_SET_NO":999,"REV_AT_EPOCH":47573,"BSTAR":0.00035461046,"MEAN_MOTION_DOT":4.925e-5,"MEAN_MOTION_DDOT":0},{"OBJECT_NAME":"FLYING LAPTOP","OBJECT_ID":"2017-042G","EPOCH":"2026-04-05T07:36:51.880896","MEAN_MOTION":15.00706187,"ECCENTRICITY":0.00197062,"INCLINATION":97.4366,"RA_OF_ASC_NODE":253.8228,"ARG_OF_PERICENTER":12.786,"MEAN_ANOMALY":347.386,"EPHEMERIS_TYPE":0,"CLASSIFICATION_TYPE":"U","NORAD_CAT_ID":42831,"ELEMENT_SET_NO":999,"REV_AT_EPOCH":47552,"BSTAR":0.00026723356,"MEAN_MOTION_DOT":3.341e-5,"MEAN_MOTION_DDOT":0},{"OBJECT_NAME":"HAWK-A","OBJECT_ID":"2018-099H","EPOCH":"2026-04-05T03:31:00.522912","MEAN_MOTION":15.2369618,"ECCENTRICITY":0.00357519,"INCLINATION":97.3993,"RA_OF_ASC_NODE":148.3573,"ARG_OF_PERICENTER":179.9758,"MEAN_ANOMALY":180.1487,"EPHEMERIS_TYPE":0,"CLASSIFICATION_TYPE":"U","NORAD_CAT_ID":43765,"ELEMENT_SET_NO":999,"REV_AT_EPOCH":40197,"BSTAR":0.00041895293,"MEAN_MOTION_DOT":0.0001017,"MEAN_MOTION_DDOT":0},{"OBJECT_NAME":"HAWK-B","OBJECT_ID":"2018-099AN","EPOCH":"2026-04-05T03:33:30.272256","MEAN_MOTION":15.21955709,"ECCENTRICITY":0.00323289,"INCLINATION":97.4042,"RA_OF_ASC_NODE":147.9226,"ARG_OF_PERICENTER":197.0543,"MEAN_ANOMALY":162.961,"EPHEMERIS_TYPE":0,"CLASSIFICATION_TYPE":"U","NORAD_CAT_ID":43794,"ELEMENT_SET_NO":999,"REV_AT_EPOCH":40192,"BSTAR":0.00040275113,"MEAN_MOTION_DOT":9.248e-5,"MEAN_MOTION_DDOT":0},{"OBJECT_NAME":"HAWK-C","OBJECT_ID":"2018-099AT","EPOCH":"2026-04-05T03:39:55.271520","MEAN_MOTION":15.26958685,"ECCENTRICITY":0.00416942,"INCLINATION":97.3968,"RA_OF_ASC_NODE":148.9272,"ARG_OF_PERICENTER":181.6713,"MEAN_ANOMALY":178.4393,"EPHEMERIS_TYPE":0,"CLASSIFICATION_TYPE":"U","NORAD_CAT_ID":43799,"ELEMENT_SET_NO":999,"REV_AT_EPOCH":40276,"BSTAR":0.00046699812,"MEAN_MOTION_DOT":0.00012611,"MEAN_MOTION_DDOT":0},{"OBJECT_NAME":"SALSAT","OBJECT_ID":"2020-068K","EPOCH":"2026-04-05T06:04:13.433664","MEAN_MOTION":15.28731219,"ECCENTRICITY":0.00095847,"INCLINATION":97.8868,"RA_OF_ASC_NODE":93.9405,"ARG_OF_PERICENTER":187.7921,"MEAN_ANOMALY":172.317,"EPHEMERIS_TYPE":0,"CLASSIFICATION_TYPE":"U","NORAD_CAT_ID":46495,"ELEMENT_SET_NO":999,"REV_AT_EPOCH":30421,"BSTAR":0.00038420903,"MEAN_MOTION_DOT":0.00010667,"MEAN_MOTION_DDOT":0},{"OBJECT_NAME":"HAWK-2C","OBJECT_ID":"2021-006CT","EPOCH":"2026-04-05T02:28:28.553664","MEAN_MOTION":15.33769066,"ECCENTRICITY":0.00088767,"INCLINATION":97.2354,"RA_OF_ASC_NODE":140.8883,"ARG_OF_PERICENTER":102.3357,"MEAN_ANOMALY":257.888,"EPHEMERIS_TYPE":0,"CLASSIFICATION_TYPE":"U","NORAD_CAT_ID":47502,"ELEMENT_SET_NO":999,"REV_AT_EPOCH":28829,"BSTAR":0.00025772397,"MEAN_MOTION_DOT":8.35e-5,"MEAN_MOTION_DDOT":0},{"OBJECT_NAME":"HAWK-2A","OBJECT_ID":"2021-006CW","EPOCH":"2026-04-05T02:32:58.623648","MEAN_MOTION":15.33781077,"ECCENTRICITY":0.00084372,"INCLINATION":97.2401,"RA_OF_ASC_NODE":141.5264,"ARG_OF_PERICENTER":105.3206,"MEAN_ANOMALY":254.897,"EPHEMERIS_TYPE":0,"CLASSIFICATION_TYPE":"U","NORAD_CAT_ID":47505,"ELEMENT_SET_NO":999,"REV_AT_EPOCH":28829,"BSTAR":0.00025454189,"MEAN_MOTION_DOT":8.248e-5,"MEAN_MOTION_DDOT":0},{"OBJECT_NAME":"HAWK-2B","OBJECT_ID":"2021-006CZ","EPOCH":"2026-04-05T02:28:50.392992","MEAN_MOTION":15.33775652,"ECCENTRICITY":0.0009036,"INCLINATION":97.2275,"RA_OF_ASC_NODE":139.9767,"ARG_OF_PERICENTER":103.3177,"MEAN_ANOMALY":256.9074,"EPHEMERIS_TYPE":0,"CLASSIFICATION_TYPE":"U","NORAD_CAT_ID":47508,"ELEMENT_SET_NO":999,"REV_AT_EPOCH":28829,"BSTAR":0.00030386636,"MEAN_MOTION_DOT":9.863e-5,"MEAN_MOTION_DDOT":0},{"OBJECT_NAME":"HAWK-3B","OBJECT_ID":"2021-059BE","EPOCH":"2026-04-05T06:03:53.775072","MEAN_MOTION":15.63913763,"ECCENTRICITY":0.00050573,"INCLINATION":97.6712,"RA_OF_ASC_NODE":285.3785,"ARG_OF_PERICENTER":227.4985,"MEAN_ANOMALY":132.5847,"EPHEMERIS_TYPE":0,"CLASSIFICATION_TYPE":"U","NORAD_CAT_ID":48931,"ELEMENT_SET_NO":999,"REV_AT_EPOCH":26643,"BSTAR":0.00053272364,"MEAN_MOTION_DOT":0.00050172,"MEAN_MOTION_DDOT":0},{"OBJECT_NAME":"HAWK-3C","OBJECT_ID":"2021-059BX","EPOCH":"2026-04-04T23:54:52.975008","MEAN_MOTION":15.6388183,"ECCENTRICITY":0.00052419,"INCLINATION":97.6845,"RA_OF_ASC_NODE":290.6534,"ARG_OF_PERICENTER":228.8108,"MEAN_ANOMALY":131.2699,"EPHEMERIS_TYPE":0,"CLASSIFICATION_TYPE":"U","NORAD_CAT_ID":48948,"ELEMENT_SET_NO":999,"REV_AT_EPOCH":26639,"BSTAR":0.00047439886,"MEAN_MOTION_DOT":0.00044582,"MEAN_MOTION_DDOT":0},{"OBJECT_NAME":"HAWK-3A","OBJECT_ID":"2021-059CG","EPOCH":"2026-04-05T06:03:16.820064","MEAN_MOTION":15.6390482,"ECCENTRICITY":0.00050614,"INCLINATION":97.6787,"RA_OF_ASC_NODE":288.1961,"ARG_OF_PERICENTER":227.1672,"MEAN_ANOMALY":132.9161,"EPHEMERIS_TYPE":0,"CLASSIFICATION_TYPE":"U","NORAD_CAT_ID":48957,"ELEMENT_SET_NO":999,"REV_AT_EPOCH":26643,"BSTAR":0.00051459223,"MEAN_MOTION_DOT":0.00048433,"MEAN_MOTION_DDOT":0},{"OBJECT_NAME":"HAWK-5C","OBJECT_ID":"2022-057Y","EPOCH":"2026-04-05T03:50:57.750432","MEAN_MOTION":15.48779037,"ECCENTRICITY":0.00042718,"INCLINATION":97.6503,"RA_OF_ASC_NODE":250.321,"ARG_OF_PERICENTER":341.8966,"MEAN_ANOMALY":18.2131,"EPHEMERIS_TYPE":0,"CLASSIFICATION_TYPE":"U","NORAD_CAT_ID":52754,"ELEMENT_SET_NO":999,"REV_AT_EPOCH":21503,"BSTAR":0.00048988234,"MEAN_MOTION_DOT":0.00026265,"MEAN_MOTION_DDOT":0},{"OBJECT_NAME":"HAWK-5B","OBJECT_ID":"2022-057AA","EPOCH":"2026-04-05T05:23:44.810880","MEAN_MOTION":15.48783634,"ECCENTRICITY":0.00041652,"INCLINATION":97.651,"RA_OF_ASC_NODE":248.7307,"ARG_OF_PERICENTER":335.144,"MEAN_ANOMALY":24.9608,"EPHEMERIS_TYPE":0,"CLASSIFICATION_TYPE":"U","NORAD_CAT_ID":52756,"ELEMENT_SET_NO":999,"REV_AT_EPOCH":21504,"BSTAR":0.00046009079,"MEAN_MOTION_DOT":0.0002466,"MEAN_MOTION_DDOT":0},{"OBJECT_NAME":"HAWK-5A","OBJECT_ID":"2022-057AB","EPOCH":"2026-04-05T03:50:25.423008","MEAN_MOTION":15.48784106,"ECCENTRICITY":0.00046113,"INCLINATION":97.6506,"RA_OF_ASC_NODE":249.4961,"ARG_OF_PERICENTER":338.1636,"MEAN_ANOMALY":21.9417,"EPHEMERIS_TYPE":0,"CLASSIFICATION_TYPE":"U","NORAD_CAT_ID":52757,"ELEMENT_SET_NO":999,"REV_AT_EPOCH":21503,"BSTAR":0.00049265728,"MEAN_MOTION_DOT":0.00026421,"MEAN_MOTION_DDOT":0},{"OBJECT_NAME":"HAWK-6B","OBJECT_ID":"2023-011A","EPOCH":"2026-04-05T04:20:17.622528","MEAN_MOTION":15.22271244,"ECCENTRICITY":0.00046435,"INCLINATION":40.4995,"RA_OF_ASC_NODE":57.6768,"ARG_OF_PERICENTER":249.2628,"MEAN_ANOMALY":110.7684,"EPHEMERIS_TYPE":0,"CLASSIFICATION_TYPE":"U","NORAD_CAT_ID":55324,"ELEMENT_SET_NO":999,"REV_AT_EPOCH":17671,"BSTAR":0.00034918728,"MEAN_MOTION_DOT":8.021e-5,"MEAN_MOTION_DDOT":0},{"OBJECT_NAME":"HAWK-6C","OBJECT_ID":"2023-011C","EPOCH":"2026-04-05T04:19:25.811904","MEAN_MOTION":15.22273602,"ECCENTRICITY":0.00045227,"INCLINATION":40.499,"RA_OF_ASC_NODE":54.5274,"ARG_OF_PERICENTER":239.3429,"MEAN_ANOMALY":120.6935,"EPHEMERIS_TYPE":0,"CLASSIFICATION_TYPE":"U","NORAD_CAT_ID":55326,"ELEMENT_SET_NO":999,"REV_AT_EPOCH":17672,"BSTAR":0.00036090774,"MEAN_MOTION_DOT":8.298e-5,"MEAN_MOTION_DDOT":0}]
