TECHNOSAT               
1 42829U 17042E   26095.23328044  .00004925  00000+0  35461-3 0  9998
2 42829  97.4206 255.7255 0017181 349.3380  10.7480 15.04521665475735
FLYING LAPTOP           
1 42831U 17042G   26095.31726714  .00003341  00000+0  26723-3 0  9998
2 42831  97.4366 253.8228 0019706  12.7860 347.3860 15.00706187475521
HAWK-A                  
1 43765U 18099H   26095.14653383  .00010170  00000+0  41895-3 0  9995
2 43765  97.3993 148.3573 0035751 179.9758 180.1487 15.23696180401976
HAWK-B                  
1 43794U 18099AN  26095.14826704  .00009248  00000+0  40275-3 0  9991
2 43794  97.4042 147.9226 0032328 197.0543 162.9610 15.21955709401928
HAWK-C                  
1 43799U 18099AT  26095.15272305  .00012611  00000+0  46700-3 0  9996
2 43799  97.3968 148.9272 0041694 181.6713 178.4393 15.26958685402769
SALSAT                  
1 46495U 20068K   26095.25293326  .00010667  00000+0  38421-3 0  9998
2 46495  97.8868  93.9405 0009584 187.7921 172.3170 15.28731219304217
HAWK-2C                 
1 47502U 21006CT  26095.10310826  .00008350  00000+0  25772-3 0  9991
2 47502  97.2354 140.8883 0008876 102.3357 257.8880 15.33769066288295
HAWK-2A                 
1 47505U 21006CW  26095.10623407  .00008248  00000+0  25454-3 0  9999
2 47505  97.2401 141.5264 0008437 105.3206 254.8970 15.33781077288294
HAWK-2B                 
1 47508U 21006CZ  26095.10336103  .00009863  00000+0  30387-3 0  9991
2 47508  97.2275 139.9767 0009036 103.3177 256.9074 15.33775652288296
HAWK-3B                 
1 48931U 21059BE  26095.25270573  .00050172  00000+0  53272-3 0  9991
2 48931  97.6712 285.3785 0005057 227.4985 132.5847 15.63913763266436
HAWK-3C                 
1 48948U 21059BX  26094.99644647  .00044582  00000+0  47440-3 0  9994
2 48948  97.6845 290.6534 0005241 228.8108 131.2699 15.63881830266394
HAWK-3A                 
1 48957U 21059CG  26095.25227801  .00048433  00000+0  51459-3 0  9997
2 48957  97.6787 288.1961 0005061 227.1672 132.9161 15.63904820266435
HAWK-5C                 
1 52754U 22057Y   26095.16039063  .00026265  00000+0  48988-3 0  9999
2 52754  97.6503 250.3210 0004271 341.8966  18.2131 15.48779037215037
HAWK-5B                 
1 52756U 22057AA  26095.22482420  .00024660  00000+0  46009-3 0  9996
2 52756  97.6510 248.7307 0004165 335.1440  24.9608 15.48783634215042
HAWK-5A                 
1 52757U 22057AB  26095.16001647  .00026421  00000+0  49266-3 0  9993
2 52757  97.6506 249.4961 0004611 338.1636  21.9417 15.48784106215037
HAWK-6B                 
1 55324U 23011A   26095.18075952  .00008021  00000+0  34919-3 0  9994
2 55324  40.4995  57.6768 0004643 249.2628 110.7684 15.22271244176710
HAWK-6C                 
1 55326U 23011C   26095.18015986  .00008298  00000+0  36091-3 0  9996
2 55326  40.4990  54.5274 0004522 239.3429 120.6935 15.22273602176720
